STARLINK-30088
1 57462U 23107F   26061.16668981  .01588968  00000+0  58582-1 0  9990
2 57462  42.9998  18.7194 0001673 272.0949 137.2255 15.23887060  5669
STARLINK-30161
1 57476U 23107V   26061.16668981  .01684736  00000+0  61917-1 0  9991
2 57476  43.0000  18.1890 0002182 270.1054   1.2146 15.23796230  5767
STARLINK-30268
1 57531U 23115L   26061.16668981  .00956307  00000+0  35903-1 0  9993
2 57531  43.0000  44.3461 0000777 292.2408 215.4894 15.23826126  5813
STARLINK-30346
1 57704U 23129G   26061.16668981  .01044095  00000+0  38841-1 0  9997
2 57704  43.0003 160.0124 0001489 279.0759 181.3524 15.23884137  5810
STARLINK-30460
1 57870U 23144G   26061.16668981  .02155543  00000+0  78381-1 0  9993
2 57870  43.0014 327.6636 0001875 249.3449 236.8369 15.23846635  5825
STARLINK-30793
1 58185U 23167L   26061.16668981  .01301545  00000+0  48206-1 0  9995
2 58185  43.0020 185.7880 0001250 265.3362 165.4008 15.23851567  5574
STARLINK-30931
1 58413U 23180M   26061.16668981  .01279697  00000+0  47454-1 0  9990
2 58413  43.0015  83.6775 0001674 255.9382 257.5324 15.23865954  5814
